{
    "links": {
        "self": "http://www.neowsapp.com/rest/v1/neo/3789418?api_key=iIulBulltgU6a56xZRHN4H3l9WmuAYTsLGpBGhQ2"
    },
    "id": "3789418",
    "neo_reference_id": "3789418",
    "name": "(2017 VW14)",
    "designation": "2017 VW14",
    "nasa_jpl_url": "http://ssd.jpl.nasa.gov/sbdb.cgi?sstr=3789418",
    "absolute_magnitude_h": 25.3,
    "estimated_diameter": {
        "kilometers": {
            "estimated_diameter_min": 0.0231502122,
            "estimated_diameter_max": 0.0517654482
        },
        "meters": {
            "estimated_diameter_min": 23.150212221,
            "estimated_diameter_max": 51.7654482198
        },
        "miles": {
            "estimated_diameter_min": 0.0143848705,
            "estimated_diameter_max": 0.0321655483
        },
        "feet": {
            "estimated_diameter_min": 75.9521422633,
            "estimated_diameter_max": 169.8341531374
        }
    },
    "is_potentially_hazardous_asteroid": false,
    "close_approach_data": [
        {
            "close_approach_date": "2017-11-21",
            "close_approach_date_full": "2017-Nov-21 22:46",
            "epoch_date_close_approach": 1511304360000,
            "relative_velocity": {
                "kilometers_per_second": "7.2105125113",
                "kilometers_per_hour": "25957.8450407536",
                "miles_per_hour": "16129.1954365727"
            },
            "miss_distance": {
                "astronomical": "0.0629575846",
                "lunar": "24.4905004094",
                "kilometers": "9418320.556504802",
                "miles": "5852273.0203061876"
            },
            "orbiting_body": "Earth"
        },
        {
            "close_approach_date": "2025-10-08",
            "close_approach_date_full": "2025-Oct-08 07:57",
            "epoch_date_close_approach": 1759910220000,
            "relative_velocity": {
                "kilometers_per_second": "7.7965677197",
                "kilometers_per_hour": "28067.6437910531",
                "miles_per_hour": "17440.1423322796"
            },
            "miss_distance": {
                "astronomical": "0.0403329926",
                "lunar": "15.6895341214",
                "kilometers": "6033729.783685762",
                "miles": "3749185.8355250356"
            },
            "orbiting_body": "Mars"
        }
    ],
    "orbital_data": {
        "orbit_id": "4",
        "orbit_determination_date": "2017-11-29 06:18:20",
        "first_observation_date": "2017-11-15",
        "last_observation_date": "2017-11-28",
        "data_arc_in_days": 13,
        "observations_used": 42,
        "orbit_uncertainty": "7",
        "minimum_orbit_intersection": ".0440095",
        "jupiter_tisserand_invariant": "5.008",
        "epoch_osculation": "2459000.5",
        "eccentricity": ".2130805172678877",
        "semi_major_axis": "1.28081809938961",
        "inclination": "12.79344014284866",
        "ascending_node_longitude": "233.6369453216763",
        "orbital_period": "529.4556789318242",
        "perihelion_distance": "1.007900716245599",
        "perihelion_argument": "211.8597265004217",
        "aphelion_distance": "1.553735482533621",
        "perihelion_time": "2459165.236209470066",
        "mean_anomaly": "247.9886687987341",
        "mean_motion": ".6799435992948443",
        "equinox": "J2000",
        "orbit_class": {
            "orbit_class_type": "APO",
            "orbit_class_description": "Near-Earth asteroid orbits which cross the Earth’s orbit similar to that of 1862 Apollo",
            "orbit_class_range": "a (semi-major axis) > 1.0 AU; q (perihelion) < 1.017 AU"
        }
    },
    "is_sentry_object": false
}